[
    {
        "placeName": " The Unscaled Mountain"
    },
    {
        "placeName": "Absack Cliff"
    },
    {
        "placeName": "Alagate Gulch"
    },
    {
        "placeName": "Applehead Loch"
    },
    {
        "placeName": "Arctic Cove"
    },
    {
        "placeName": "Arctic Pond"
    },
    {
        "placeName": "Arden Bluff"
    },
    {
        "placeName": "Arlingford Hillside"
    },
    {
        "placeName": "Arlingree Heights"
    },
    {
        "placeName": "Arsevain Bluffs"
    },
    {
        "placeName": "Atharath Shallows"
    },
    {
        "placeName": "Autumnnigan Pinnacle"
    },
    {
        "placeName": "Avoncana Cliffs"
    },
    {
        "placeName": "Barlinet Hills"
    },
    {
        "placeName": "Battlesevain Slopes"
    },
    {
        "placeName": "Bellefail Lake"
    },
    {
        "placeName": "Benwe Slopes"
    },
    {
        "placeName": "Bereswe Shallows"
    },
    {
        "placeName": "Blainval Hills"
    },
    {
        "placeName": "Bland Cove"
    },
    {
        "placeName": "Boiling Expanse"
    },
    {
        "placeName": "Boiling Lagoon"
    },
    {
        "placeName": "Boothliers Waters"
    },
    {
        "placeName": "Brosville Highlands"
    },
    {
        "placeName": "Brownning Volcano"
    },
    {
        "placeName": "Bursneau Heights"
    },
    {
        "placeName": "Bursting Cove"
    },
    {
        "placeName": "Camwe Volcano"
    },
    {
        "placeName": "Caratou Mountain"
    },
    {
        "placeName": "Carigborg Bluffs"
    },
    {
        "placeName": "Carigcouche Lake"
    },
    {
        "placeName": "Cauworth Waters"
    },
    {
        "placeName": "Chescook Forest"
    },
    {
        "placeName": "Chilside Waters"
    },
    {
        "placeName": "Colidon Hill"
    },
    {
        "placeName": "Colimark Expanse"
    },
    {
        "placeName": "Conrane Wilds"
    },
    {
        "placeName": "Conton Tips"
    },
    {
        "placeName": "Cowick Heights"
    },
    {
        "placeName": "Cudfait Reservoir"
    },
    {
        "placeName": "Curious Forest"
    },
    {
        "placeName": "Darford Highland"
    },
    {
        "placeName": "Dartminster Crag"
    },
    {
        "placeName": "Daylisle Expanse"
    },
    {
        "placeName": "Dayton Heights"
    },
    {
        "placeName": "Deep Wood"
    },
    {
        "placeName": "Delorvista Depths"
    },
    {
        "placeName": "Dense Depths"
    },
    {
        "placeName": "Dread Basin"
    },
    {
        "placeName": "Dreaded Basin"
    },
    {
        "placeName": "Dreaded Pond"
    },
    {
        "placeName": "Dreaded Shallows"
    },
    {
        "placeName": "Dunton Crevice"
    },
    {
        "placeName": "Duparcona Pond"
    },
    {
        "placeName": "Earthy Timberland"
    },
    {
        "placeName": "Effingbourg Domain"
    },
    {
        "placeName": "Emerberg Pinnacle"
    },
    {
        "placeName": "Emervista Gorge"
    },
    {
        "placeName": "Empty Depths"
    },
    {
        "placeName": "Everguay Reservoir"
    },
    {
        "placeName": "Fermis Basin"
    },
    {
        "placeName": "Fordcoln Highland"
    },
    {
        "placeName": "Franher Mountains"
    },
    {
        "placeName": "Freenet Gorge"
    },
    {
        "placeName": "Gamtou Covert"
    },
    {
        "placeName": "Ganmis Waters"
    },
    {
        "placeName": "Glashead Timberland"
    },
    {
        "placeName": "Glennan Summit"
    },
    {
        "placeName": "Glorious Bladdernut Covert"
    },
    {
        "placeName": "Gloverburns Forest"
    },
    {
        "placeName": "Grandborough Canyon"
    },
    {
        "placeName": "Groshall Canyon"
    },
    {
        "placeName": "Guilberg Hill"
    },
    {
        "placeName": "Hebneau Cove"
    },
    {
        "placeName": "Hermibury Grove"
    },
    {
        "placeName": "High Tatras - Peak Koprovsky stit"
    },
    {
        "placeName": "Hillhead Rise"
    },
    {
        "placeName": "Hissing Timberland"
    },
    {
        "placeName": "Huge Cliff Woodland"
    },
    {
        "placeName": "Imaginary Maple Wilds"
    },
    {
        "placeName": "Innisrey Lake"
    },
    {
        "placeName": "Islingwich Mountains"
    },
    {
        "placeName": "Ivory Sloth Woodland"
    },
    {
        "placeName": "Jaded Timberland"
    },
    {
        "placeName": "Keargan Hillside"
    },
    {
        "placeName": "Keelburns Mountains"
    },
    {
        "placeName": "Keeldosa Expanse"
    },
    {
        "placeName": "Kensingning Pond"
    },
    {
        "placeName": "Killingland Gulch"
    },
    {
        "placeName": "Kinderwich Bluff"
    },
    {
        "placeName": "Kingsmere Depths"
    },
    {
        "placeName": "Krivan"
    },
    {
        "placeName": "Lashbriand Waters"
    },
    {
        "placeName": "Laughing Mole Wood"
    },
    {
        "placeName": "Laughing Squirrel Woods"
    },
    {
        "placeName": "Lesser Porcupine Thicket"
    },
    {
        "placeName": "Lilypad Cove"
    },
    {
        "placeName": "Limingdosa Timberland"
    },
    {
        "placeName": "Long-Tailed Deer Woodland"
    },
    {
        "placeName": "Low Tatras - Chopok - Dumbier"
    },
    {
        "placeName": "Magkasing Mountain"
    },
    {
        "placeName": "Majestic Frog Covert"
    },
    {
        "placeName": "Mellow Redbud Woodland"
    },
    {
        "placeName": "Merineau Mountain"
    },
    {
        "placeName": "Mighty Glade Wilds"
    },
    {
        "placeName": "Millerleche Waters"
    },
    {
        "placeName": "Millersoll Woodland"
    },
    {
        "placeName": "Minor Bog Wood"
    },
    {
        "placeName": "Mulworth Pinnacle"
    },
    {
        "placeName": "Narrow Ash Woods"
    },
    {
        "placeName": "Niapawa Lake"
    },
    {
        "placeName": "Panoramic Forest"
    },
    {
        "placeName": "Parrshaw Expanse"
    },
    {
        "placeName": "Paspool Hill"
    },
    {
        "placeName": "Peak Velky Rozsutec"
    },
    {
        "placeName": "Petrocier Timberland"
    },
    {
        "placeName": "Picmiota Covert"
    },
    {
        "placeName": "Pleasant Expanse"
    },
    {
        "placeName": "Portsdare Bluff"
    },
    {
        "placeName": "Puny Grove"
    },
    {
        "placeName": "Rainy Lake"
    },
    {
        "placeName": "Ramagne Volcano"
    },
    {
        "placeName": "Reflecting Pond"
    },
    {
        "placeName": "Relaxing Reservoir"
    },
    {
        "placeName": "Repenhead Loch"
    },
    {
        "placeName": "Richree Domain"
    },
    {
        "placeName": "Rippling Lake"
    },
    {
        "placeName": "Rugram Mountain"
    },
    {
        "placeName": "Rugris Lagoon"
    },
    {
        "placeName": "Salberry Heights"
    },
    {
        "placeName": "Savanna Eagle Grove"
    },
    {
        "placeName": "Serene Lagoon"
    },
    {
        "placeName": "Sinris Wood"
    },
    {
        "placeName": "Slovak Paradise - gorge Sucha Bela"
    },
    {
        "placeName": "Small Fatra - Prielom Hornadu"
    },
    {
        "placeName": "Sparkling Reservoir"
    },
    {
        "placeName": "Speckled Eagle Wilds"
    },
    {
        "placeName": "Spiritual Woodland"
    },
    {
        "placeName": "Stanwell Wall"
    },
    {
        "placeName": "Stelry Grove"
    },
    {
        "placeName": "Stokestone Covert"
    },
    {
        "placeName": "Sudby Thicket"
    },
    {
        "placeName": "Sudding Slopes"
    },
    {
        "placeName": "Sudwaki Volcano"
    },
    {
        "placeName": "Summertown Depths"
    },
    {
        "placeName": "Tadpole Waters"
    },
    {
        "placeName": "Tamwell Bluffs"
    },
    {
        "placeName": "Tecumisle Gorge"
    },
    {
        "placeName": "Teeny Timberland"
    },
    {
        "placeName": "The Bellowing Wall"
    },
    {
        "placeName": "The Blazing Bluff"
    },
    {
        "placeName": "The Colossal Cliffs"
    },
    {
        "placeName": "The Cracking Canyon"
    },
    {
        "placeName": "The Cursed Abyss"
    },
    {
        "placeName": "The Cursed Chasm"
    },
    {
        "placeName": "The Darkest Heights"
    },
    {
        "placeName": "The Deserted Hill"
    },
    {
        "placeName": "The Desolate Hills"
    },
    {
        "placeName": "The Dominating Heights"
    },
    {
        "placeName": "The Eastern Summit"
    },
    {
        "placeName": "The Enchanted Fjords"
    },
    {
        "placeName": "The Enchanted Heights"
    },
    {
        "placeName": "The Ever Reaching Gorge"
    },
    {
        "placeName": "The Fabled Bluff"
    },
    {
        "placeName": "The Forbidden Tips"
    },
    {
        "placeName": "The Forested Hill"
    },
    {
        "placeName": "The Forested Volcano"
    },
    {
        "placeName": "The Frozen Pinnacle"
    },
    {
        "placeName": "The Frozen Tips"
    },
    {
        "placeName": "The Giant Heights"
    },
    {
        "placeName": "The Haunted Pinnacle"
    },
    {
        "placeName": "The Hooded Cliff"
    },
    {
        "placeName": "The Iced Gulch"
    },
    {
        "placeName": "The Jagged Crevice"
    },
    {
        "placeName": "The Light Tops"
    },
    {
        "placeName": "The Mammoth Crevice"
    },
    {
        "placeName": "The Mammoth Fjord"
    },
    {
        "placeName": "The Mammoth Gorge"
    },
    {
        "placeName": "The Mighty Hillside"
    },
    {
        "placeName": "The Murky Fjord"
    },
    {
        "placeName": "The Naked Hillside"
    },
    {
        "placeName": "The Narrow Peaks"
    },
    {
        "placeName": "The Neverending Hills"
    },
    {
        "placeName": "The New Tops"
    },
    {
        "placeName": "The Northern Hills"
    },
    {
        "placeName": "The Rabbit Ear Cliff"
    },
    {
        "placeName": "The Rabbit Ear Fjords"
    },
    {
        "placeName": "The Restless Hill"
    },
    {
        "placeName": "The Round-Topped Rise"
    },
    {
        "placeName": "The Screaming Wall"
    },
    {
        "placeName": "The Silver Highland"
    },
    {
        "placeName": "The Soft Fjords"
    },
    {
        "placeName": "The Sunken Ship Fjords"
    },
    {
        "placeName": "The Thunder Bluff"
    },
    {
        "placeName": "The Towering Hill"
    },
    {
        "placeName": "The Tradepost Crag"
    },
    {
        "placeName": "The Treachorous Cliffs"
    },
    {
        "placeName": "The Western Wall"
    },
    {
        "placeName": "The Windless Mountains"
    },
    {
        "placeName": "The Windy Slopes"
    },
    {
        "placeName": "The Yelling Volcano"
    },
    {
        "placeName": "Thick Field Thicket"
    },
    {
        "placeName": "Thundering Basin"
    },
    {
        "placeName": "Thurcastle Grove"
    },
    {
        "placeName": "Torringmeny Lake"
    },
    {
        "placeName": "Tortoise Cove"
    },
    {
        "placeName": "Towering Willow Woodland"
    },
    {
        "placeName": "Trichill Wood"
    },
    {
        "placeName": "Troning Canyon"
    },
    {
        "placeName": "Tunbrook Fjords"
    },
    {
        "placeName": "Valwater Summit"
    },
    {
        "placeName": "Vauxtara Woods"
    },
    {
        "placeName": "Vauxvern Tips"
    },
    {
        "placeName": "Velka Fatra"
    },
    {
        "placeName": "Ventou Bluff"
    },
    {
        "placeName": "Violent Woodland"
    },
    {
        "placeName": "Walled Basin"
    },
    {
        "placeName": "Wallingline Tops"
    },
    {
        "placeName": "Wapeheim Covert"
    },
    {
        "placeName": "Wapemond Mountain"
    },
    {
        "placeName": "Waterfall Skok"
    },
    {
        "placeName": "Wellingcaster Loch"
    },
    {
        "placeName": "Wesfield Thicket"
    },
    {
        "placeName": "Western Crocodile Grove"
    },
    {
        "placeName": "Weylam Lake"
    },
    {
        "placeName": "Whimsical Spruce Woodland"
    },
    {
        "placeName": "Wild Duck Woods"
    },
    {
        "placeName": "Windrood Abyss"
    },
    {
        "placeName": "Winrood Wood"
    }
]